IRIDIUM 144             
1 43249U 18030A   24187.66147531  .00000167  00000+0  52737-4 0  9990
2 43249  86.3967 227.7433 0002589  89.8998 270.2495 14.34218530328177
IRIDIUM 149             
1 43250U 18030B   24187.80735370  .00000016  00000+0 -12852-5 0  9991
2 43250  86.3969 227.6571 0002312  88.5533 271.5927 14.34218440328194
IRIDIUM 157             
1 43251U 18030C   24187.54730534  .00000163  00000+0  51176-4 0  9993
2 43251  86.3968 227.8032 0001997  90.3090 269.8334 14.34216516328133
IRIDIUM 140             
1 43252U 18030D   24187.63610161 -.00000028  00000+0 -17234-4 0  9996
2 43252  86.3973 227.7807 0002598  95.5775 264.5717 14.34215711328205
IRIDIUM 145             
1 43253U 18030E   24187.55365191  .00000038  00000+0  64284-5 0  9995
2 43253  86.3968 227.7887 0002687  86.2702 273.8801 14.34217712328125
IRIDIUM 146             
1 43254U 18030F   24187.60439223  .00000122  00000+0  36440-4 0  9996
2 43254  86.3967 227.7823 0002453  89.1818 270.9659 14.34218005328143
IRIDIUM 148             
1 43255U 18030G   24187.57267873  .00000300  00000+0  10007-3 0  9991
2 43255  86.3967 227.8277 0002195  88.9076 271.2371 14.34217792328174
IRIDIUM 142             
1 43256U 18030H   24187.61073508  .00000295  00000+0  98204-4 0  9996
2 43256  86.3966 227.7268 0002561  87.1286 273.0203 14.34218267328143
